$$SOE
2460154.500000000, A.D. 2023-Jul-29 00:00:00.0000, 3.933059190096250E+08, 4.878165004942338E+08, -1.604743021050203E+07,
2460161.500000000, A.D. 2023-Aug-05 00:00:00.0000, 3.877364711784849E+08, 4.903728313368551E+08, -1.475062502817222E+07,
2460168.500000000, A.D. 2023-Aug-12 00:00:00.0000, 3.820905945394948E+08, 4.928315175310885E+08, -1.345089181226206E+07,
2460175.500000000, A.D. 2023-Aug-19 00:00:00.0000, 3.763688391145814E+08, 4.951913367856626E+08, -1.214847149433318E+07,
2460182.500000000, A.D. 2023-Aug-26 00:00:00.0000, 3.705717574957722E+08, 4.974510405351728E+08, -1.084360856208375E+07,
2460189.500000000, A.D. 2023-Sep-02 00:00:00.0000, 3.646999054896178E+08, 4.996093529184473E+08, -9.536551292014122E+06,
2460196.500000000, A.D. 2023-Sep-09 00:00:00.0000, 3.587538428073755E+08, 5.016649696041990E+08, -8.227552002649963E+06,
2460203.500000000, A.D. 2023-Sep-16 00:00:00.0000, 3.527341339725437E+08, 5.036165564041027E+08, -6.916867349219471E+06,
2460210.500000000, A.D. 2023-Sep-23 00:00:00.0000, 3.466413498657209E+08, 5.054627479582000E+08, -5.604758675310493E+06,
2460217.500000000, A.D. 2023-Sep-30 00:00:00.0000, 3.404760695711784E+08, 5.072021476809697E+08, -4.291492293883502E+06,
2460224.500000000, A.D. 2023-Oct-07 00:00:00.0000, 3.342388801749116E+08, 5.088333284221030E+08, -2.977339526926249E+06,
2460231.500000000, A.D. 2023-Oct-14 00:00:00.0000, 3.279303755574115E+08, 5.103548305263757E+08, -1.662576870672405E+06,
2460238.500000000, A.D. 2023-Oct-21 00:00:00.0000, 3.215511574142838E+08, 5.117651588932881E+08, -3.474864524742663E+05,
2460245.500000000, A.D. 2023-Oct-28 00:00:00.0000, 3.151018370848341E+08, 5.130627812935132E+08, 9.676435350211561E+05,
2460252.500000000, A.D. 2023-Nov-04 00:00:00.0000, 3.085830369426876E+08, 5.142461271687526E+08, 2.282518473110735E+06,
2460259.500000000, A.D. 2023-Nov-11 00:00:00.0000, 3.019953915306383E+08, 5.153135863126702E+08, 3.596836963335037E+06,
2460266.500000000, A.D. 2023-Nov-18 00:00:00.0000, 2.953395486646186E+08, 5.162635073662151E+08, 4.910290454299122E+06,
2460273.500000000, A.D. 2023-Nov-25 00:00:00.0000, 2.886161705856161E+08, 5.170941961472384E+08, 6.222562842884779E+06,
2460280.500000000, A.D. 2023-Dec-02 00:00:00.0000, 2.818259351941051E+08, 5.178039138001512E+08, 7.533330044903785E+06,
2460287.500000000, A.D. 2023-Dec-09 00:00:00.0000, 2.749695374514815E+08, 5.183908747033551E+08, 8.842259521605819E+06,
2460294.500000000, A.D. 2023-Dec-16 00:00:00.0000, 2.680476912430811E+08, 5.188532441435879E+08, 1.014900973487133E+07,
2460301.500000000, A.D. 2023-Dec-23 00:00:00.0000, 2.610611320589942E+08, 5.191891364411792E+08, 1.145322955326006E+07,
2460308.500000000, A.D. 2023-Dec-30 00:00:00.0000, 2.540106191609614E+08, 5.193966145712869E+08, 1.275455781529906E+07,
2460315.500000000, A.D. 2024-Jan-06 00:00:00.0000, 2.468969354712223E+08, 5.194736889154871E+08, 1.405262301723292E+07,
2460322.500000000, A.D. 2024-Jan-13 00:00:00.0000, 2.397208883652405E+08, 5.194183133332118E+08, 1.534704268401605E+07,
2460329.500000000, A.D. 2024-Jan-20 00:00:00.0000, 2.324833126032746E+08, 5.192283816338565E+08, 1.663742256054163E+07,
2460336.500000000, A.D. 2024-Jan-27 00:00:00.0000, 2.251850733840702E+08, 5.189017250963910E+08, 1.792335585940051E+07,
2460343.500000000, A.D. 2024-Feb-03 00:00:00.0000, 2.178270691048305E+08, 5.184361100821949E+08, 1.920442252370456E+07,
2460350.500000000, A.D. 2024-Feb-10 00:00:00.0000, 2.104102341186174E+08, 5.178292354443457E+08, 2.048018845230228E+07,
2460357.500000000, A.D. 2024-Feb-17 00:00:00.0000, 2.029355416431156E+08, 5.170787297353651E+08, 2.175020467163676E+07,
2460364.500000000, A.D. 2024-Feb-24 00:00:00.0000, 1.954040068734445E+08, 5.161821482219844E+08, 2.301400644821745E+07,
2460371.500000000, A.D. 2024-Mar-02 00:00:00.0000, 1.878166903467869E+08, 5.151369696678770E+08, 2.427111233213314E+07,
2460378.500000000, A.D. 2024-Mar-09 00:00:00.0000, 1.801747017179070E+08, 5.139405928147657E+08, 2.552102310918957E+07,
2460385.500000000, A.D. 2024-Mar-16 00:00:00.0000, 1.724792043632962E+08, 5.125903327524346E+08, 2.676322063664046E+07,
2460392.500000000, A.D. 2024-Mar-23 00:00:00.0000, 1.647314207355832E+08, 5.110834182799026E+08, 2.799716665730458E+07,
2460399.500000000, A.D. 2024-Mar-30 00:00:00.0000, 1.569326362550105E+08, 5.094169902228360E+08, 2.922230178954312E+07,
2460406.500000000, A.D. 2024-Apr-06 00:00:00.0000, 1.490842020234120E+08, 5.075880973309233E+08, 3.043804438807467E+07,
2460413.500000000, A.D. 2024-Apr-13 00:00:00.0000, 1.411875399448360E+08, 5.055936905853573E+08, 3.164378901152623E+07,
2460420.500000000, A.D. 2024-Apr-20 00:00:00.0000, 1.332441493388366E+08, 5.034306185865307E+08, 3.283890479527804E+07,
2460427.500000000, A.D. 2024-Apr-27 00:00:00.0000, 1.252556135710055E+08, 5.010956234527712E+08, 3.402273381460354E+07,
2460434.500000000, A.D. 2024-May-04 00:00:00.0000, 1.172236068342849E+08, 4.985853365196462E+08, 3.519458936362061E+07,
2460441.500000000, A.D. 2024-May-11 00:00:00.0000, 1.091499013702299E+08, 4.958962737319930E+08, 3.635375411014864E+07,
2460448.500000000, A.D. 2024-May-18 00:00:00.0000, 1.010363752689101E+08, 4.930248307451846E+08, 3.749947811010629E+07,
2460455.500000000, A.D. 2024-May-25 00:00:00.0000, 9.288502093543418E+07, 4.899672777243746E+08, 3.863097666699186E+07,
2460462.500000000, A.D. 2024-Jun-01 00:00:00.0000, 8.469795435351907E+07, 4.867197537811931E+08, 3.974742801351658E+07,
2460469.500000000, A.D. 2024-Jun-08 00:00:00.0000, 7.647742547100630E+07, 4.832782610230597E+08, 4.084797077687657E+07,
2460476.500000000, A.D. 2024-Jun-15 00:00:00.0000, 6.822583019408961E+07, 4.796386587602526E+08, 4.193170122009706E+07,
2460483.500000000, A.D. 2024-Jun-22 00:00:00.0000, 5.994572308234201E+07, 4.757966590485663E+08, 4.299767043060574E+07,
2460490.500000000, A.D. 2024-Jun-29 00:00:00.0000, 5.163982873084456E+07, 4.717478217511318E+08, 4.404488148289868E+07,
2460497.500000000, A.D. 2024-Jul-06 00:00:00.0000, 4.331105460220040E+07, 4.674875466580812E+08, 4.507228611035353E+07,
2460504.500000000, A.D. 2024-Jul-13 00:00:00.0000, 3.496250739087054E+07, 4.630110655085902E+08, 4.607878091638437E+07,
2460511.500000000, A.D. 2024-Jul-20 00:00:00.0000, 2.659751108622697E+07, 4.583134350907454E+08, 4.706320337677786E+07,
2460518.500000000, A.D. 2024-Jul-27 00:00:00.0000, 1.821962624814055E+07, 4.533895304929937E+08, 4.802432758825004E+07,
2460525.500000000, A.D. 2024-Aug-03 00:00:00.0000, 9.832670957511036E+06, 4.482340381759034E+08, 4.896085967828834E+07,
2460532.500000000, A.D. 2024-Aug-10 00:00:00.0000, 1.440743819387629E+06, 4.428414489166651E+08, 4.987143282871890E+07,
2460539.500000000, A.D. 2024-Aug-17 00:00:00.0000, -6.951750697037851E+06, 4.372060507212501E+08, 5.075460187561384E+07,
2460546.500000000, A.D. 2024-Aug-24 00:00:00.0000, -1.534007428866325E+07, 4.313219217753379E+08, 5.160883744343382E+07,
2460553.500000000, A.D. 2024-Aug-31 00:00:00.0000, -2.371912380678304E+07, 4.251829234907446E+08, 5.243251955710274E+07,
2460560.500000000, A.D. 2024-Sep-07 00:00:00.0000, -3.208339650648837E+07, 4.187826939226475E+08, 5.322393066525120E+07,
2460567.500000000, A.D. 2024-Sep-14 00:00:00.0000, -4.042695110151009E+07, 4.121146427410396E+08, 5.398124810198668E+07,
2460574.500000000, A.D. 2024-Sep-21 00:00:00.0000, -4.874336623804709E+07, 4.051719484034758E+08, 5.470253615818840E+07,
2460581.500000000, A.D. 2024-Sep-28 00:00:00.0000, -5.702569641093940E+07, 3.979475545878269E+08, 5.538573749147519E+07,
2460588.500000000, A.D. 2024-Oct-05 00:00:00.0000, -6.526642114108786E+07, 3.904341662416366E+08, 5.602866348536251E+07,
2460595.500000000, A.D. 2024-Oct-12 00:00:00.0000, -7.345738720691472E+07, 3.826242486749905E+08, 5.662898378172936E+07,
2460602.500000000, A.D. 2024-Oct-19 00:00:00.0000, -8.158974504982863E+07, 3.745100299750578E+08, 5.718421507298045E+07,
2460609.500000000, A.D. 2024-Oct-26 00:00:00.0000, -8.965387869383724E+07, 3.660835066143456E+08, 5.769170904211089E+07,
2460616.500000000, A.D. 2024-Nov-02 00:00:00.0000, -9.763932816763794E+07, 3.573364529339477E+08, 5.814863937204413E+07,
2460623.500000000, A.D. 2024-Nov-09 00:00:00.0000, -1.055347035170082E+08, 3.482604355430326E+08, 5.855198778470427E+07,
2460630.500000000, A.D. 2024-Nov-16 00:00:00.0000, -1.133275895104731E+08, 3.388468338875883E+08, 5.889852909131931E+07,
2460637.500000000, A.D. 2024-Nov-23 00:00:00.0000, -1.210044400765285E+08, 3.290868684736592E+08, 5.918481525344956E+07,
2460644.500000000, A.D. 2024-Nov-30 00:00:00.0000, -1.285504613262516E+08, 3.189716385801315E+08, 5.940715847456312E+07,
2460651.500000000, A.D. 2024-Dec-07 00:00:00.0000, -1.359494818143366E+08, 3.084921721738471E+08, 5.956161340916729E+07,
2460658.500000000, A.D. 2024-Dec-14 00:00:00.0000, -1.431838098614310E+08, 2.976394920444510E+08, 5.964395881176448E+07,
2460665.500000000, A.D. 2024-Dec-21 00:00:00.0000, -1.502340795227098E+08, 2.864047003132866E+08, 5.964967898856071E+07,
2460672.500000000, A.D. 2024-Dec-28 00:00:00.0000, -1.570790827301585E+08, 2.747790824443322E+08, 5.957394500163141E+07,
2460679.500000000, A.D. 2025-Jan-04 00:00:00.0000, -1.636955849125334E+08, 2.627542380524827E+08, 5.941159611982593E+07,
2460686.500000000, A.D. 2025-Jan-11 00:00:00.0000, -1.700581264257855E+08, 2.503222460633039E+08, 5.915712257997537E+07,
2460693.500000000, A.D. 2025-Jan-18 00:00:00.0000, -1.761388121075110E+08, 2.374758702873017E+08, 5.880465071332084E+07,
2460700.500000000, A.D. 2025-Jan-25 00:00:00.0000, -1.819070913922975E+08, 2.242088131016977E+08, 5.834793178962503E+07,
2460707.500000000, A.D. 2025-Feb-01 00:00:00.0000, -1.873295332856148E+08, 2.105160266260718E+08, 5.778033644292931E+07,
2460714.500000000, A.D. 2025-Feb-08 00:00:00.0000, -1.923696031077279E+08, 1.963940920421826E+08, 5.709485714809878E+07,
2460721.500000000, A.D. 2025-Feb-15 00:00:00.0000, -1.969874512923545E+08, 1.818416786863587E+08, 5.628412193978016E+07,
$$EOE